P/2015 T3 (PANSTARRS),e,13.0937,120.5019,178.6330,4.326181,0.1095335,0.50818108,359.9227,12/21.0/2014,2000,g 14.0,4.0
# From MPC102953
C/2015 T4 (PANSTARRS),e,87.9618,251.7989,270.0564,80.56776,0.0013629,0.97149370,0.0000,06/17.6212/2016,2000,g 11.0,4.0
# From MPC102097
C/2015 T5 (Sheppard-Tholen),e,11.0490,311.0818,61.7896,28.04760,0.0066353,0.66726580,9.4432,12/15.0/2019,2000,g  7.5,4.0
# From MPC102953
P/2015 TO19 (Lemmon-PANSTARRS),e,6.4993,321.6424,89.2147,4.557967,0.1012855,0.35772510,139.7160,12/15.0/2019,2000,g 14.0,4.0
# From MPC110080
P/2015 TP200 (LINEAR),e,8.7728,6.9796,82.7391,7.284065,0.0501353,0.53494620,57.3255,12/15.0/2019,2000,g 11.0,4.0
# From MPC101097
C/2015 TQ209 (LINEAR),e,11.3116,223.4408,282.0983,725.4024,0.0000504,0.99804943,0.0000,08/26.5480/2016,2000,g 10.5,4.0
# From MPC115881
C/2015 V1 (PANSTARRS),e,139.2234,197.1869,179.6165,5455,0.0000024,0.99921771,0.0000,12/17.4157/2017,2000,g  6.5,4.0
# From MPC112390
C/2015 V2 (Johnson),h,06/12.2301/2017,49.8741,69.8535,164.9707,1.001828,1.640456,2000,5.0,4.0
# From MPC102953
C/2015 V3 (PANSTARRS),e,86.2386,2.2688,0.7085,627.3185,0.0000627,0.99325485,0.0000,11/24.0091/2015,2000,g  9.0,4.0
# From MPC104791
C/2015 V4 (PANSTARRS),e,60.7600,179.9105,307.0567,18.51239,0.0123740,0.70485312,14.8866,12/15.0/2019,2000,g  8.5,4.0
# From MPC115881
C/2015 VL62 (Lemmon-Yeung-PANSTARRS),h,08/28.1259/2017,165.8151,95.0893,128.7211,1.001196,2.713497,2000,8.0,4.0
# From MPC102098
C/2015 WZ (PANSTARRS),e,134.5584,40.1347,66.6507,146.4981,0.0005558,0.99060017,0.0000,04/14.1262/2016,2000,g 15.0,4.0
# From MPC109142
C/2015 W1 (Gibbs),h,05/15.7085/2016,87.3696,114.3162,48.1956,1.000263,2.240410,2000,13.0,4.0
# From MPC101098
P/2015 W2 (Catalina),e,11.6069,294.2516,117.5787,7.302341,0.0499472,0.63329422,76.7656,12/15.0/2019,2000,g 13.0,4.0
# From MPC101098
P/2015 X1 (PANSTARRS),e,12.1520,161.7759,218.9968,3.630448,0.1424832,0.41892439,217.8482,12/15.0/2019,2000,g 16.0,4.0
# From MPC118840
C/2015 XY1 (Lemmon),h,04/28.8100/2018,148.8556,281.6254,196.2904,1.004043,7.926347,2000,5.5,4.0
# From MPC100281
C/2015 X2 (Catalina),e,72.1084,101.1013,42.3743,15.84280,0.0156299,0.87842197,22.7683,12/15.0/2019,2000,g 16.0,4.0
# From MPC 97498
P/2015 X3 (PANSTARRS),e,24.3822,77.3348,306.6734,5.012437,0.0878275,0.43809356,139.7270,12/15.0/2019,2000,g 15.0,4.0
# From MPC109142
C/2015 X4 (Elenin),e,29.5005,262.6227,176.2800,17.97417,0.0129339,0.81120477,19.4466,12/15.0/2019,2000,g 10.0,4.0
# From MPC118840
C/2015 X5 (PANSTARRS),h,12/30.3184/2017,124.3075,122.3407,27.7124,1.003034,6.800015,2000,7.5,4.0
# From MPC115881
P/2015 X6 (PANSTARRS),e,4.5648,106.9472,329.8991,2.752394,0.2158431,0.17228789,293.6835,12/15.0/2019,2000,g 16.0,4.0
# From MPC109143
C/2015 X7 (ATLAS),h,07/29.6346/2016,57.5629,139.9063,348.4688,1.000370,3.685451,2000,9.0,4.0
# From MPC107048
C/2015 X8 (NEOWISE),e,155.2191,191.1476,20.4332,19.76695,0.0112149,0.93995903,16.9673,12/15.0/2019,2000,g 16.0,4.0
# From MPC109143
C/2015 Y1 (LINEAR),e,71.1768,135.8106,24.6986,257.9020,0.0002380,0.99024290,0.0000,05/14.4259/2016,2000,g 12.0,4.0
# From MPC105543
C/2015 YG1 (NEOWISE),e,57.2715,350.5170,102.5346,17.01588,0.0140418,0.87854510,21.6132,12/15.0/2019,2000,g 13.0,4.0
# From MPC118840
C/2016 A1 (PANSTARRS),h,11/23.1056/2017,121.2043,128.1988,10.2976,1.002078,5.326149,2000,6.0,4.0
# From MPC100282
P/2016 A2 (Christensen),e,26.4059,291.6170,141.6603,4.748121,0.0952624,0.27158303,155.8584,12/15.0/2019,2000,g 11.5,4.0
# From MPC115881
P/2016 A3 (PANSTARRS),e,8.5148,187.3646,340.6646,7.885781,0.0445079,0.38844288,42.7284,12/15.0/2019,2000,g 10.0,4.0
# From MPC109143
C/2016 A5 (PANSTARRS),e,40.2396,136.1629,321.5569,678.9745,0.0000557,0.99566206,0.0000,06/26.8628/2015,2000,g 13.5,4.0
# From MPC109143
C/2016 A6 (PANSTARRS),e,120.9356,300.3635,141.0847,207.6694,0.0003293,0.98840680,0.0000,11/06.2675/2015,2000,g 15.0,4.0
# From MPC102098
P/2016 A7 (PANSTARRS),e,16.6310,221.4728,352.6253,5.029935,0.0873696,0.56582464,121.3166,12/15.0/2019,2000,g 16.0,4.0
# From MPC106345
C/2016 A8 (LINEAR),e,148.2431,111.3381,130.3522,34.28231,0.0049102,0.94503450,5.9036,12/15.0/2019,2000,g 12.0,4.0
# From MPC107048
C/2016 B1 (NEOWISE),e,50.4702,231.9687,8.6592,439.3971,0.0001070,0.99269049,0.0000,12/04.8466/2016,2000,g  9.5,4.0
# From MPC109143
P/2016 BA14 (PANSTARRS),e,18.8989,180.5383,351.9131,3.023900,0.1874359,0.66531880,256.8517,12/15.0/2019,2000,g 21.0,4.0
# From MPC110494
C/2016 C1 (PANSTARRS),h,02/19.4352/2016,56.2093,181.7958,328.7874,1.002801,8.467241,2000,5.5,4.0
# From MPC101098
C/2016 C2 (NEOWISE),e,38.1020,24.4204,214.5231,65.85139,0.0018444,0.97623610,0.0000,04/19.6537/2016,2000,g 16.0,4.0
# From MPC110494
C/2016 E1 (PANSTARRS),h,06/03.8605/2017,131.8924,233.0516,47.4486,1.005224,8.179599,2000,6.5,4.0
# From MPC 99821
C/2016 E2 (Kowalski),e,135.9178,186.8060,321.9049,139.2898,0.0005995,0.99227163,0.0000,02/06.6676/2016,2000,g 20.0,4.0
# From MPC102098
P/2016 G1 (PANSTARRS),e,10.9690,204.0596,111.2971,2.582341,0.2375109,0.21086854,249.9125,12/15.0/2019,2000,g 14.0,4.0
# From MPEC 2017-D91
P/2016 J1-A (PANSTARRS),e,14.3250,199.8364,46.8415,3.174329,0.1742714,0.22823970,220.9158,12/15.0/2019,2000,g 16.5,4.0
# From MPEC 2017-A77
P/2016 J1-B (PANSTARRS),e,14.3277,199.8412,46.7327,3.173959,0.1743019,0.22809095,221.0291,12/15.0/2019,2000,g 17.0,4.0
# From MPC101099
C/2016 J2 (Denneau),e,130.3411,186.3226,318.6120,621.0261,0.0000637,0.99755038,0.0000,04/12.0081/2016,2000,g 17.0,4.0
# From MPC102099
C/2016 KA (Catalina),e,104.6742,317.5133,63.1798,4592,0.0000032,0.99882289,0.0000,02/01.9943/2016,2000,g  8.5,4.0
# From MPC104792
C/2016 K1 (LINEAR),e,90.9037,325.6388,18.2634,12500,0.0000007,0.99981656,0.0000,07/13.2545/2016,2000,g 13.0,4.0
# From MPC118840
C/2016 M1 (PANSTARRS),e,91.0008,92.2025,209.8569,3029,0.0000059,0.99927007,0.0000,08/10.2420/2018,2000,g  5.0,4.0
# From MPC115881
C/2016 N4 (MASTER),e,72.5811,354.0075,55.9417,2393,0.0000084,0.99866306,0.0000,09/16.4607/2017,2000,g  8.5,4.0
# From MPC118092
C/2016 N6 (PANSTARRS),e,105.8402,298.9851,162.7824,1946,0.0000115,0.99862914,0.0000,07/18.1509/2018,2000,g  7.0,4.0
# From MPC102099
P/2016 P1 (PANSTARRS),e,24.4529,319.5661,270.0319,3.195138,0.1725718,0.28942199,266.2921,12/15.0/2019,2000,g 15.0,4.0
# From MPC102099
C/2016 P4 (PANSTARRS),e,29.8822,320.7457,356.1248,386.3619,0.0001298,0.98475168,0.0000,10/17.6657/2016,2000,g 10.5,4.0
# From MPC118093
C/2016 Q2 (PANSTARRS),e,109.3907,322.3012,84.4778,10588,0.0000009,0.99933099,0.0000,05/11.2779/2021,2000,g  6.0,4.0
# From MPC102955
C/2016 Q4 (Kowalski),e,7.2577,271.2841,99.3867,16.87972,0.0142120,0.58024196,9.7711,12/15.0/2019,2000,g  7.0,4.0
# From MPC117069
C/2016 R2 (PANSTARRS),e,58.2247,80.5697,33.1917,595.5278,0.0000678,0.99562911,0.0000,05/09.4590/2018,2000,g  7.0,4.0
# From MPC102099
C/2016 R3 (Borisov),e,53.0447,78.6395,118.1849,200.4247,0.0003474,0.99775092,0.0000,10/10.6336/2016,2000,g 18.0,4.0
# From MPC109144
P/2016 R4 (Gibbs),e,10.8667,168.2938,173.9902,5.331830,0.0800552,0.47580095,99.4360,12/15.0/2019,2000,g 12.5,4.0
# From MPC105543
P/2016 S1 (PANSTARRS),e,94.6463,227.5153,273.2674,8.281033,0.0413597,0.71030396,41.5054,12/15.0/2019,2000,g 12.0,4.0
# From MPC105238
C/2016 T1 (Matheny),e,129.8451,56.2653,137.3711,123.0522,0.0007221,0.98129096,0.0000,02/01.3040/2017,2000,g 14.5,4.0
# From MPC107685
C/2016 T2 (Matheny),e,81.3530,339.1370,92.2604,99.19974,0.0009976,0.98077124,0.0000,12/28.9674/2016,2000,g 14.5,4.0
# From MPC110082
C/2016 T3 (PANSTARRS),e,22.6771,271.7426,194.6945,135.3657,0.0006258,0.98041750,0.0000,09/06.7158/2017,2000,g 10.5,4.0
# From MPC103847
C/2016 U1 (NEOWISE),h,01/14.0413/2017,46.4144,61.4442,162.8282,1.000390,0.321219,2000,17.0,4.0
# From MPC106345
C/2016 VZ18 (PANSTARRS),e,24.0157,98.9255,36.3962,174.3211,0.0004282,0.99476697,0.0000,03/06.6586/2017,2000,g 19.5,4.0
# From MPC106345
P/2016 WM48 (Lemmon),e,117.4245,59.9018,36.1005,8.174238,0.0421729,0.78424598,43.1620,12/15.0/2019,2000,g 15.0,4.0
# From MPC118840
C/2016 X1 (Lemmon),e,26.4551,256.4242,224.5370,1494,0.0000171,0.99493564,0.0000,04/29.3853/2019,2000,g  6.0,4.0
# From MPC108594
C/2017 A1 (PANSTARRS),e,49.7942,121.0405,2.0748,77.72255,0.0014384,0.97050641,0.0000,05/16.6477/2017,2000,g 13.0,4.0
# From MPC108594
C/2017 A3 (Elenin),e,98.5374,97.9079,304.0664,43.49717,0.0034357,0.91146099,3.6016,12/15.0/2019,2000,g  9.5,4.0
# From MPC114598
C/2017 AB5 (PANSTARRS),e,32.4330,42.6680,78.3671,3168,0.0000055,0.99709112,0.0000,02/16.7307/2018,2000,g  5.5,4.0
# From MPC118840
C/2017 B3 (LINEAR),h,02/02.6110/2019,54.1772,2.1787,284.7707,1.002014,3.921520,2000,6.0,4.0
# From MPC103847
P/2017 B4 (PANSTARRS),e,20.0584,121.4578,11.0197,4.410520,0.1064068,0.36495152,359.9130,01/05.0/2017,2000,g 14.5,4.0
# From MPC104793
C/2017 C1 (NEOWISE),e,65.7394,357.4773,110.1421,20.63341,0.0105159,0.92724083,11.1519,12/15.0/2019,2000,g 18.0,4.0
# From MPC107685
C/2017 C2 (PANSTARRS),e,118.5900,249.8168,138.6779,97.70559,0.0010205,0.97516806,0.0000,01/21.6234/2017,2000,g 14.0,4.0
# From MPC104793
P/2017 D1 (Fuls),e,20.7625,82.1756,8.1140,4.829193,0.0928736,0.43710581,117.6232,12/15.0/2019,2000,g 14.0,4.0
# From MPC112391
C/2017 D2 (Barros),e,31.2565,330.9920,334.4305,2632,0.0000073,0.99905519,0.0000,07/14.7688/2017,2000,g 11.0,4.0
# From MPC114598
C/2017 D3 (ATLAS),h,04/27.1636/2017,125.5736,186.6410,340.8431,1.001872,4.973901,2000,8.0,4.0
# From MPC110495
P/2017 D4 (PANSTARRS),e,10.5302,264.9371,212.3307,7.571610,0.0473066,0.62898040,56.5012,12/15.0/2019,2000,g 13.0,4.0
# From MPC104794
C/2017 D5 (PANSTARRS),e,131.0600,92.7369,287.8059,114.9972,0.0007992,0.98117967,0.0000,01/09.2397/2017,2000,g 16.0,4.0
# From MPC106346
C/2017 E1 (Borisov),h,04/10.4262/2017,14.5634,142.6264,152.5918,1.002938,0.900447,2000,14.0,4.0
# From MPC109144
C/2017 E2 (Tsuchinshan),e,79.0288,11.5685,89.3944,21.55155,0.0098511,0.89088588,12.9286,12/15.0/2019,2000,g 11.5,4.0
# From MPC115882
C/2017 E3 (PANSTARRS),h,06/08.2210/2017,70.6229,220.7265,334.5107,1.007245,5.936244,2000,6.5,4.0
